[{"OBJECT_NAME":"STARLINK-1621","OBJECT_ID":"2020-057L","EPOCH":"2026-03-10T00:00:02.999808","MEAN_MOTION":15.77360389,"ECCENTRICITY":0.00049397,"INCLINATION":53.0446,"RA_OF_ASC_NODE":242.112,"ARG_OF_PERICENTER":242.853,"MEAN_ANOMALY":149.5144,"EPHEMERIS_TYPE":0,"CLASSIFICATION_TYPE":"U","NORAD_CAT_ID":46127,"ELEMENT_SET_NO":999,"REV_AT_EPOCH":581,"BSTAR":0.00093063466,"MEAN_MOTION_DOT":0.00159043,"MEAN_MOTION_DDOT":0},{"OBJECT_NAME":"STARLINK-36610","OBJECT_ID":"2026-020W","EPOCH":"2026-03-08T14:05:18.108096","MEAN_MOTION":15.76441226,"ECCENTRICITY":0.00021156,"INCLINATION":42.9991,"RA_OF_ASC_NODE":148.7377,"ARG_OF_PERICENTER":262.5651,"MEAN_ANOMALY":97.4979,"EPHEMERIS_TYPE":0,"CLASSIFICATION_TYPE":"U","NORAD_CAT_ID":67637,"ELEMENT_SET_NO":999,"REV_AT_EPOCH":591,"BSTAR":0.00093652396,"MEAN_MOTION_DOT":0.00155361,"MEAN_MOTION_DDOT":0}]
